start=new Date('2021-10-25T00:00:00.000Z').valueOf();
sats=[{"BSTAR":"0.00013276000000","APOAPSIS":"548.493","LAUNCH_DATE":"2020-06-13","COUNTRY_CODE":"US","GP_ID":"188103308","MEAN_ANOMALY":"283.2703","CLASSIFICATION_TYPE":"U","ARG_OF_PERICENTER":"76.8489","MEAN_MOTION_DOT":"0.00001696","TIME_SYSTEM":"UTC","CENTER_NAME":"EARTH","EPHEMERIS_TYPE":"0","OBJECT_ID":"2020-038A","MEAN_ELEMENT_THEORY":"SGP4","TLE_LINE2":"2 45730  53.0536 205.6431 0001819  76.8489 283.2703 15.06393436 75507","EPOCH":"2021-10-24T17:31:37.063776","MEAN_MOTION":"15.06393436","REV_AT_EPOCH":"7550","RCS_SIZE":"LARGE","PERIAPSIS":"545.974","NORAD_CAT_ID":"45730","PERIOD":"95.593","OBJECT_NAME":"STARLINK-1461","INCLINATION":"53.0536","TLE_LINE1":"1 45730U 20038A   21297.73029009  .00001696  00000-0  13276-3 0  9997","DECAY_DATE":null,"REF_FRAME":"TEME","FILE":"3182768","SITE":"AFETR","MEAN_MOTION_DDOT":"0.0000000000000","ECCENTRICITY":"0.00018190","SEMIMAJOR_AXIS":"6925.369","RA_OF_ASC_NODE":"205.6431","ELEMENT_SET_NO":"999","OBJECT_TYPE":"PAYLOAD"},{"REV_AT_EPOCH":"7549","EPOCH":"2021-10-24T17:52:49.925856","MEAN_MOTION":"15.06402831","TIME_SYSTEM":"UTC","MEAN_MOTION_DOT":"0.00000358","ARG_OF_PERICENTER":"71.4053","CLASSIFICATION_TYPE":"U","GP_ID":"188103558","COUNTRY_CODE":"US","MEAN_ANOMALY":"288.7125","TLE_LINE2":"2 45731  53.0538 205.5916 0001742  71.4053 288.7125 15.06402831 75496","OBJECT_ID":"2020-038B","MEAN_ELEMENT_THEORY":"SGP4","EPHEMERIS_TYPE":"0","CENTER_NAME":"EARTH","APOAPSIS":"548.411","BSTAR":"0.00004291700000","LAUNCH_DATE":"2020-06-13","OBJECT_TYPE":"PAYLOAD","MEAN_MOTION_DDOT":"0.0000000000000","SITE":"AFETR","FILE":"3182768","REF_FRAME":"TEME","DECAY_DATE":null,"ELEMENT_SET_NO":"999","SEMIMAJOR_AXIS":"6925.340","RA_OF_ASC_NODE":"205.5916","ECCENTRICITY":"0.00017420","INCLINATION":"53.0538","OBJECT_NAME":"STARLINK-1465","TLE_LINE1":"1 45731U 20038B   21297.74502229  .00000358  00000-0  42917-4 0  9998","RCS_SIZE":"LARGE","PERIOD":"95.592","NORAD_CAT_ID":"45731","PERIAPSIS":"545.998"},{"FILE":"3182768","DECAY_DATE":null,"REF_FRAME":"TEME","MEAN_MOTION_DDOT":"0.0000000000000","SITE":"AFETR","ECCENTRICITY":"0.00018620","SEMIMAJOR_AXIS":"6925.359","RA_OF_ASC_NODE":"205.6308","ELEMENT_SET_NO":"999","OBJECT_TYPE":"PAYLOAD","RCS_SIZE":"LARGE","PERIAPSIS":"545.934","PERIOD":"95.592","NORAD_CAT_ID":"45732","OBJECT_NAME":"STARLINK-1466","INCLINATION":"53.0542","TLE_LINE1":"1 45732U 20038C   21297.73396834 -.00000456  00000-0 -11732-4 0  9993","EPOCH":"2021-10-24T17:36:54.864576","MEAN_MOTION":"15.06396609","REV_AT_EPOCH":"7549","BSTAR":"-0.00001173200000","APOAPSIS":"548.513","LAUNCH_DATE":"2020-06-13","ARG_OF_PERICENTER":"66.4920","MEAN_MOTION_DOT":"-0.00000456","GP_ID":"188103809","CLASSIFICATION_TYPE":"U","COUNTRY_CODE":"US","MEAN_ANOMALY":"293.6264","TIME_SYSTEM":"UTC","EPHEMERIS_TYPE":"0","CENTER_NAME":"EARTH","TLE_LINE2":"2 45732  53.0542 205.6308 0001862  66.4920 293.6264 15.06396609 75492","OBJECT_ID":"2020-038C","MEAN_ELEMENT_THEORY":"SGP4"},{"RCS_SIZE":"LARGE","PERIAPSIS":"545.995","NORAD_CAT_ID":"45733","PERIOD":"95.592","OBJECT_NAME":"STARLINK-1467","INCLINATION":"53.0549","TLE_LINE1":"1 45733U 20038D   21297.74133788 -.00000986  00000-0 -47264-4 0  9999","REF_FRAME":"TEME","DECAY_DATE":null,"FILE":"3182768","SITE":"AFETR","MEAN_MOTION_DDOT":"0.0000000000000","ECCENTRICITY":"0.00017480","SEMIMAJOR_AXIS":"6925.341","ELEMENT_SET_NO":"999","RA_OF_ASC_NODE":"205.6062","OBJECT_TYPE":"PAYLOAD","BSTAR":"-0.00004726400000","APOAPSIS":"548.416","LAUNCH_DATE":"2020-06-13","GP_ID":"188104060","CLASSIFICATION_TYPE":"U","COUNTRY_CODE":"US","MEAN_ANOMALY":"286.0541","MEAN_MOTION_DOT":"-0.00000986","ARG_OF_PERICENTER":"74.0641","TIME_SYSTEM":"UTC","CENTER_NAME":"EARTH","EPHEMERIS_TYPE":"0","MEAN_ELEMENT_THEORY":"SGP4","OBJECT_ID":"2020-038D","TLE_LINE2":"2 45733  53.0549 205.6062 0001748  74.0641 286.0541 15.06402560 75493","EPOCH":"2021-10-24T17:47:31.592832","MEAN_MOTION":"15.06402560","REV_AT_EPOCH":"7549"},{"REV_AT_EPOCH":"7545","EPOCH":"2021-10-24T10:58:49.915488","MEAN_MOTION":"15.06398404","TIME_SYSTEM":"UTC","GP_ID":"188067730","MEAN_ANOMALY":"284.9205","COUNTRY_CODE":"US","CLASSIFICATION_TYPE":"U","ARG_OF_PERICENTER":"75.1964","MEAN_MOTION_DOT":"0.00000073","MEAN_ELEMENT_THEORY":"SGP4","OBJECT_ID":"2020-038E","TLE_LINE2":"2 45734  53.0539 206.8696 0001629  75.1964 284.9205 15.06398404 75458","CENTER_NAME":"EARTH","EPHEMERIS_TYPE":"0","APOAPSIS":"548.347","BSTAR":"0.00002383600000","LAUNCH_DATE":"2020-06-13","OBJECT_TYPE":"PAYLOAD","SITE":"AFETR","MEAN_MOTION_DDOT":"0.0000000000000","REF_FRAME":"TEME","DECAY_DATE":null,"FILE":"3182197","SEMIMAJOR_AXIS":"6925.353","ELEMENT_SET_NO":"999","RA_OF_ASC_NODE":"206.8696","ECCENTRICITY":"0.00016290","INCLINATION":"53.0539","OBJECT_NAME":"STARLINK-1468","TLE_LINE1":"1 45734U 20038E   21297.45752217  .00000073  00000-0  23836-4 0  9996","RCS_SIZE":"LARGE","NORAD_CAT_ID":"45734","PERIOD":"95.592","PERIAPSIS":"546.090"},{"BSTAR":"0.00067930000000","APOAPSIS":"548.393","LAUNCH_DATE":"2020-06-13","MEAN_MOTION_DOT":"0.00009859","ARG_OF_PERICENTER":"69.3289","CLASSIFICATION_TYPE":"U","GP_ID":"188103058","COUNTRY_CODE":"US","MEAN_ANOMALY":"290.7896","TIME_SYSTEM":"UTC","EPHEMERIS_TYPE":"0","CENTER_NAME":"EARTH","TLE_LINE2":"2 45735  53.0554 205.5185 0001830  69.3289 290.7896 15.06428748 75494","MEAN_ELEMENT_THEORY":"SGP4","OBJECT_ID":"2020-038F","EPOCH":"2021-10-24T18:14:07.056096","MEAN_MOTION":"15.06428748","REV_AT_EPOCH":"7549","RCS_SIZE":"LARGE","PERIAPSIS":"545.858","PERIOD":"95.590","NORAD_CAT_ID":"45735","OBJECT_NAME":"STARLINK-1471","INCLINATION":"53.0554","TLE_LINE1":"1 45735U 20038F   21297.75980389  .00009859  00000-0  67930-3 0  9996","FILE":"3182768","DECAY_DATE":null,"REF_FRAME":"TEME","MEAN_MOTION_DDOT":"0.0000000000000","SITE":"AFETR","ECCENTRICITY":"0.00018300","ELEMENT_SET_NO":"999","SEMIMAJOR_AXIS":"6925.260","RA_OF_ASC_NODE":"205.5185","OBJECT_TYPE":"PAYLOAD"},{"SITE":"AFETR","MEAN_MOTION_DDOT":"0.0000000000000","DECAY_DATE":null,"REF_FRAME":"TEME","FILE":"3182768","SEMIMAJOR_AXIS":"6925.334","ELEMENT_SET_NO":"999","RA_OF_ASC_NODE":"205.6148","ECCENTRICITY":"0.00014610","OBJECT_TYPE":"PAYLOAD","RCS_SIZE":"LARGE","NORAD_CAT_ID":"45736","PERIOD":"95.592","PERIAPSIS":"546.187","INCLINATION":"53.0538","OBJECT_NAME":"STARLINK-1472","TLE_LINE1":"1 45736U 20038G   21297.73764950  .00001193  00000-0  98967-4 0  9997","EPOCH":"2021-10-24T17:42:12.916800","MEAN_MOTION":"15.06404906","REV_AT_EPOCH":"7549","APOAPSIS":"548.210","BSTAR":"0.00009896700000","LAUNCH_DATE":"2020-06-13","TIME_SYSTEM":"UTC","CLASSIFICATION_TYPE":"U","GP_ID":"188104310","COUNTRY_CODE":"US","MEAN_ANOMALY":"275.0317","MEAN_MOTION_DOT":"0.00001193","ARG_OF_PERICENTER":"85.0839","MEAN_ELEMENT_THEORY":"SGP4","OBJECT_ID":"2020-038G","TLE_LINE2":"2 45736  53.0538 205.6148 0001461  85.0839 275.0317 15.06404906 75497","CENTER_NAME":"EARTH","EPHEMERIS_TYPE":"0"},{"BSTAR":"0.00013377000000","APOAPSIS":"548.514","LAUNCH_DATE":"2020-06-13","ARG_OF_PERICENTER":"71.5981","MEAN_MOTION_DOT":"0.00001712","CLASSIFICATION_TYPE":"U","GP_ID":"188104561","COUNTRY_CODE":"US","MEAN_ANOMALY":"288.5214","TIME_SYSTEM":"UTC","EPHEMERIS_TYPE":"0","CENTER_NAME":"EARTH","TLE_LINE2":"2 45738  53.0530 205.5718 0001897  71.5981 288.5214 15.06404414 75493","OBJECT_ID":"2020-038J","MEAN_ELEMENT_THEORY":"SGP4","EPOCH":"2021-10-24T17:58:09.746688","MEAN_MOTION":"15.06404414","REV_AT_EPOCH":"7549","RCS_SIZE":"LARGE","PERIAPSIS":"545.886","PERIOD":"95.592","NORAD_CAT_ID":"45738","OBJECT_NAME":"STARLINK-1474","INCLINATION":"53.0530","TLE_LINE1":"1 45738U 20038J   21297.74872392  .00001712  00000-0  13377-3 0  9998","FILE":"3182768","DECAY_DATE":null,"REF_FRAME":"TEME","MEAN_MOTION_DDOT":"0.0000000000000","SITE":"AFETR","ECCENTRICITY":"0.00018970","SEMIMAJOR_AXIS":"6925.335","ELEMENT_SET_NO":"999","RA_OF_ASC_NODE":"205.5718","OBJECT_TYPE":"PAYLOAD"},{"LAUNCH_DATE":"2020-06-13","BSTAR":"0.00009508100000","APOAPSIS":"548.583","EPHEMERIS_TYPE":"0","CENTER_NAME":"EARTH","TLE_LINE2":"2 45739  53.0535 165.2006 0001942  65.8657 294.2534 15.06392014 76063","MEAN_ELEMENT_THEORY":"SGP4","OBJECT_ID":"2020-038K","MEAN_MOTION_DOT":"0.00001135","ARG_OF_PERICENTER":"65.8657","COUNTRY_CODE":"US","GP_ID":"188103309","CLASSIFICATION_TYPE":"U","MEAN_ANOMALY":"294.2534","TIME_SYSTEM":"UTC","MEAN_MOTION":"15.06392014","EPOCH":"2021-10-24T19:54:57.141792","REV_AT_EPOCH":"7606","PERIAPSIS":"545.893","PERIOD":"95.593","NORAD_CAT_ID":"45739","RCS_SIZE":"LARGE","TLE_LINE1":"1 45739U 20038K   21297.82982803  .00001135  00000-0  95081-4 0  9999","OBJECT_NAME":"STARLINK-1475","INCLINATION":"53.0535","ECCENTRICITY":"0.00019420","SEMIMAJOR_AXIS":"6925.373","RA_OF_ASC_NODE":"165.2006","ELEMENT_SET_NO":"999","FILE":"3182768","DECAY_DATE":null,"REF_FRAME":"TEME","MEAN_MOTION_DDOT":"0.0000000000000","SITE":"AFETR","OBJECT_TYPE":"PAYLOAD"},{"OBJECT_NAME":"STARLINK-1479","INCLINATION":"53.0543","TLE_LINE1":"1 45740U 20038L   21297.49068570  .00001649  00000-0  12959-3 0  9992","RCS_SIZE":"LARGE","PERIAPSIS":"545.960","PERIOD":"95.592","NORAD_CAT_ID":"45740","OBJECT_TYPE":"PAYLOAD","FILE":"3182616","REF_FRAME":"TEME","DECAY_DATE":null,"MEAN_MOTION_DDOT":"0.0000000000000","SITE":"AFETR","ECCENTRICITY":"0.00018010","SEMIMAJOR_AXIS":"6925.342","RA_OF_ASC_NODE":"206.7339","ELEMENT_SET_NO":"999","MEAN_MOTION_DOT":"0.00001649","ARG_OF_PERICENTER":"68.1788","GP_ID":"188080912","CLASSIFICATION_TYPE":"U","COUNTRY_CODE":"US","MEAN_ANOMALY":"291.9393","TIME_SYSTEM":"UTC","EPHEMERIS_TYPE":"0","CENTER_NAME":"EARTH","TLE_LINE2":"2 45740  53.0543 206.7339 0001801  68.1788 291.9393 15.06402056 76570","MEAN_ELEMENT_THEORY":"SGP4","OBJECT_ID":"2020-038L","BSTAR":"0.00012959000000","APOAPSIS":"548.455","LAUNCH_DATE":"2020-06-13","REV_AT_EPOCH":"7657","EPOCH":"2021-10-24T11:46:35.244480","MEAN_MOTION":"15.06402056"}];
